2014 GE54,e,16.9912,133.9955,28.0281,48.13564,0.0029512,0.26152729,30.8473,09/04.0/2017,2000,H 6.3,0.15
# From MPO384305
2014 GF54,e,8.8418,331.5911,234.4524,39.93548,0.0039054,0.19659160,12.2088,09/04.0/2017,2000,H 6.8,0.15
# From MPO384305
2014 GH54,e,26.9570,31.7591,199.9280,60.24868,0.0021076,0.38313724,356.7870,09/04.0/2017,2000,H 6.0,0.15
# From MPO384305
2014 GJ54,e,17.2269,233.0556,36.6705,39.78098,0.0039282,0.27871779,340.8331,09/04.0/2017,2000,H 7.3,0.15
# From MPO384305
2014 GK54,e,23.9675,234.1557,12.4949,39.82129,0.0039222,0.33206656,353.6691,09/04.0/2017,2000,H 7.8,0.15
# From MPO384305
2014 GL54,e,29.8173,105.2523,130.9768,58.29761,0.0022143,0.36784730,359.8259,09/04.0/2017,2000,H 6.0,0.15
# From MPO384306
2014 GM54,e,54.2586,159.8289,72.7915,39.82474,0.0039217,0.39334372,18.2683,09/04.0/2017,2000,H 6.9,0.15
# From MPO294955
2014 HV176,e,31.3240,110.8009,70.8639,7.355196,0.0494098,0.32992724,15.2368,04/13.0/2014,2000,H13.6,0.15
# From MPO409481
2014 HY195,e,22.4832,11.2479,215.4366,7.169415,0.0513427,0.10138515,354.4595,04/13.0/2014,2000,H13.7,0.15
# From MPO384306
2014 HT199,e,14.4349,73.5454,172.2208,39.65577,0.0039468,0.24765149,351.9267,09/04.0/2017,2000,H 7.1,0.15
# From MPO384306
2014 HU199,e,8.5325,118.1953,133.2504,43.47656,0.0034381,0.07516466,316.3566,09/04.0/2017,2000,H 6.1,0.15
# From MPO384306
2014 HV199,e,24.4085,87.9677,307.1823,38.09170,0.0041924,0.01237360,195.8110,09/04.0/2017,2000,H 6.2,0.15
# From MPO384306
2014 HW199,e,15.4407,222.7040,340.6863,46.62632,0.0030957,0.18445534,26.2610,09/04.0/2017,2000,H 5.7,0.15
# From MPO384307
2014 HX199,e,14.7405,109.8567,132.1462,39.94859,0.0039035,0.23343551,354.7030,09/04.0/2017,2000,H 6.9,0.15
# From MPO384307
2014 HZ199,e,27.8103,57.1113,86.1817,43.43745,0.0034428,0.15761627,61.5507,09/04.0/2017,2000,H 4.8,0.15
# From MPO384307
2014 HA200,e,10.3714,171.0020,137.7095,56.19871,0.0023395,0.34353059,314.8931,09/04.0/2017,2000,H 4.5,0.15
# From MPO411555
2014 HB200,e,8.9684,39.6862,186.2150,39.80951,0.0039240,0.24869745,357.0555,09/04.0/2017,2000,H 7.3,0.15
# From MPO384308
2014 HC200,e,35.6129,44.4448,215.3554,66.09960,0.0018340,0.43425013,344.0596,09/04.0/2017,2000,H 6.1,0.15
# From MPO384308
2014 HD200,e,14.8198,67.9061,88.8218,39.53083,0.0039655,0.06592408,60.9657,09/04.0/2017,2000,H 6.5,0.15
# From MPO384308
2014 HE200,e,9.3816,231.3978,35.5720,52.97583,0.0025562,0.35794991,339.9965,09/04.0/2017,2000,H 6.3,0.15
# From MPO384308
2014 HF200,e,9.7016,21.4527,253.2447,61.60902,0.0020382,0.42372349,347.2787,09/04.0/2017,2000,H 5.7,0.15
# From MPO349328
2014 JJ57,e,95.9270,289.4324,310.8774,6.989391,0.0533390,0.29358171,89.9054,09/04.0/2017,2000,H12.7,0.15
# From MPO384308
2014 JB80,e,13.3549,131.5799,153.1640,19.36358,0.0115671,0.34577428,358.9566,09/04.0/2017,2000,H10.6,0.15
# From MPO384308
2014 JC80,e,23.8541,140.6931,11.6790,11.38970,0.0256410,0.07872313,119.1918,09/04.0/2017,2000,H10.8,0.15
# From MPO384309
2014 JD80,e,39.0696,109.0490,241.6290,25.31790,0.0077368,0.24905127,337.9022,09/04.0/2017,2000,H 8.9,0.15
# From MPO411906
2014 JE80,e,28.1384,116.3315,146.2254,92.99292,0.0010991,0.80713919,359.4435,09/04.0/2017,2000,H 9.4,0.15
# From MPO393706
2014 JF80,e,13.8016,261.0447,83.6558,33.79049,0.0050178,0.44442454,356.8648,09/04.0/2017,2000,H 8.9,0.15
# From MPO384309
2014 JG80,e,32.7157,94.6932,324.7988,21.33188,0.0100037,0.28434224,183.8091,09/04.0/2017,2000,H 7.6,0.15
# From MPO384309
2014 JH80,e,47.4230,306.1139,27.3324,43.44359,0.0034420,0.21798854,349.0458,09/04.0/2017,2000,H 6.6,0.15
# From MPO384309
2014 JJ80,e,18.6814,261.4822,98.0974,42.93241,0.0035037,0.27141115,339.7906,09/04.0/2017,2000,H 5.5,0.15
# From MPO384310
2014 JK80,e,19.9846,156.9442,151.6061,39.65172,0.0039474,0.20010958,313.6144,09/04.0/2017,2000,H 6.1,0.15
# From MPO384310
2014 JL80,e,6.1907,129.3599,118.2047,39.77235,0.0039295,0.28575211,353.5976,09/04.0/2017,2000,H 7.1,0.15
# From MPO384310
2014 JM80,e,20.4658,182.3447,96.0915,62.91861,0.0019749,0.26882739,342.0888,09/04.0/2017,2000,H 5.5,0.15
# From MPO411906
2014 JN80,e,17.7472,138.6025,153.5361,41.66921,0.0036642,0.10910729,328.6467,09/04.0/2017,2000,H 6.3,0.15
# From MPO384310
2014 JO80,e,15.6831,196.3031,347.6816,39.45318,0.0039772,0.29345774,37.0480,09/04.0/2017,2000,H 7.4,0.15
# From MPO384310
2014 JP80,e,19.4052,146.2257,322.2201,39.49462,0.0039710,0.07261505,200.6004,09/04.0/2017,2000,H 4.9,0.15
# From MPO384311
2014 JQ80,e,7.9789,109.8226,97.5110,39.75826,0.0039315,0.22406613,19.3594,09/04.0/2017,2000,H 7.0,0.15
# From MPO384311
2014 JR80,e,15.3792,119.1522,298.5064,39.44124,0.0039790,0.08885738,246.3231,09/04.0/2017,2000,H 4.9,0.15
# From MPO384311
2014 JS80,e,15.0851,125.8973,174.4135,48.20362,0.0029450,0.16991232,358.4320,09/04.0/2017,2000,H 5.5,0.15
# From MPO384311
2014 JT80,e,14.4966,146.0681,149.5318,39.86799,0.0039153,0.22183272,336.2440,09/04.0/2017,2000,H 7.1,0.15
# From MPO384311
2014 JU80,e,11.5019,158.0252,35.0230,53.82659,0.0024958,0.33166920,34.9866,09/04.0/2017,2000,H 5.7,0.15
# From MPO384311
2014 JV80,e,8.2190,127.0549,148.8572,48.74444,0.0028961,0.40860564,354.5532,09/04.0/2017,2000,H 7.4,0.15
# From MPO384312
2014 JW80,e,40.7154,60.7695,131.5375,142.6169,0.0005787,0.73255543,5.9191,09/04.0/2017,2000,H 5.5,0.15
# From MPO384312
2014 JX80,e,28.8364,196.2649,49.6655,56.10545,0.0023453,0.36212860,4.4861,09/04.0/2017,2000,H 6.0,0.15
# From MPO315291
2014 KG2,e,24.1268,344.3317,296.5622,6.580061,0.0583928,0.78556476,69.8120,09/04.0/2017,2000,H17.6,0.15
# From MPO339502
2014 KL84,e,12.2505,134.5205,91.3328,16.18182,0.0151413,0.64635406,20.3117,09/04.0/2017,2000,H13.9,0.15
# From MPO384312
2014 KR101,e,9.1168,128.3743,156.2656,14.79343,0.0173221,0.28542532,359.3898,09/04.0/2017,2000,H11.1,0.15
# From MPO384312
2014 KS101,e,24.0678,217.3805,54.4693,38.69096,0.0040953,0.03138260,348.5150,09/04.0/2017,2000,H 6.2,0.15
# From MPO384312
2014 KT101,e,9.9284,66.3869,205.8176,42.42115,0.0035672,0.24853320,350.6767,09/04.0/2017,2000,H 6.7,0.15
# From MPO384312
2014 KU101,e,6.1763,62.0258,104.3994,39.91444,0.0039085,0.14286998,45.6193,09/04.0/2017,2000,H 6.0,0.15
# From MPO413650
2014 KV101,e,16.8067,160.4301,128.3290,39.66059,0.0039461,0.26296132,325.9795,09/04.0/2017,2000,H 7.0,0.15
# From MPO384313
2014 KW101,e,19.3340,200.1161,52.0031,40.80326,0.0037815,0.08538071,48.7026,09/04.0/2017,2000,H 5.8,0.15
# From MPO384313
2014 KX101,e,4.0024,129.4510,86.9051,39.90431,0.0039100,0.24428315,20.3603,09/04.0/2017,2000,H 7.4,0.15
# From MPO384313
2014 KY101,e,9.6550,96.3023,93.0397,39.68925,0.0039418,0.20471114,43.1473,09/04.0/2017,2000,H 6.2,0.15
# From MPO384313
2014 KZ101,e,18.6530,161.0421,81.9323,125.8211,0.0006984,0.73260110,1.3321,09/04.0/2017,2000,H 6.2,0.15
# From MPO384314
2014 KA102,e,26.7297,168.0743,6.4996,107.9131,0.0008792,0.66314696,6.7690,09/04.0/2017,2000,H 6.0,0.15
# From MPO384314
2014 KB102,e,11.1025,214.7961,45.1826,56.13203,0.0023436,0.41603374,358.6646,09/04.0/2017,2000,H 6.8,0.15
# From MPO413650
2014 KC102,e,12.5806,162.7757,136.2962,39.60117,0.0039550,0.26998790,336.7330,09/04.0/2017,2000,H 7.1,0.15
# From MPO384314
2014 KD102,e,7.2718,197.4243,58.0222,39.76383,0.0039307,0.22845038,3.1878,09/04.0/2017,2000,H 7.1,0.15
# From MPO384314
2014 LR14,e,6.2557,183.7230,84.1188,18.92759,0.0119691,0.53112332,6.5773,09/04.0/2017,2000,H11.8,0.15
# From MPO411557
2014 LM28,e,84.7480,246.1864,38.2428,267.7370,0.0002250,0.93736510,359.9862,09/04.0/2017,2000,H 9.9,0.15
# From MPO384315
2014 LN28,e,8.7085,197.0968,159.1135,36.19095,0.0045269,0.54995821,350.0791,09/04.0/2017,2000,H 8.0,0.15
# From MPO384315
2014 LO28,e,25.5750,287.1614,107.1996,42.88480,0.0035095,0.11607854,306.7595,09/04.0/2017,2000,H 5.2,0.15
# From MPO384315
2014 LP28,e,16.1062,177.4096,131.6889,41.05562,0.0037467,0.04733755,16.2972,09/04.0/2017,2000,H 5.9,0.15
# From MPO384315
2014 LQ28,e,1.3002,223.3467,158.1961,43.48157,0.0034375,0.09264125,339.7181,09/04.0/2017,2000,H 5.7,0.15
# From MPO384315
2014 LR28,e,1.4696,146.7282,21.9198,43.96526,0.0033810,0.05617984,150.0391,09/04.0/2017,2000,H 5.0,0.15
# From MPO384315
2014 LS28,e,3.8265,116.0347,182.3976,43.59112,0.0034246,0.06697829,303.2682,09/04.0/2017,2000,H 5.8,0.15
# From MPO384316
2014 LT28,e,10.0253,63.6989,197.8992,44.32968,0.0033394,0.07121865,33.9197,09/04.0/2017,2000,H 5.7,0.15
# From MPO384316
2014 LU28,e,32.2506,104.4393,121.4726,55.59284,0.0023778,0.36302979,11.5368,09/04.0/2017,2000,H 6.6,0.15
# From MPO384316
2014 LV28,e,10.6979,316.7109,26.8923,69.01120,0.0017192,0.50289936,348.7523,09/04.0/2017,2000,H 5.5,0.15
# From MPO298949
2014 MH55,e,91.4809,67.7049,188.8740,27.51294,0.0068297,0.83818975,8.0874,09/04.0/2017,2000,H13.7,0.15
# From MPO369203
2014 MT69,e,3.2263,140.9265,235.9850,43.22990,0.0034676,0.10400300,275.2674,07/02.0/2014,2000,H11.7,0.15
# From MPO384316
2014 MX69,e,10.8847,178.3813,68.9004,32.13103,0.0054115,0.27512643,58.6848,09/04.0/2017,2000,H 7.3,0.15
# From MPO384317
2014 MY69,e,17.4632,0.9836,201.4574,40.35897,0.0038441,0.05579128,128.2330,09/04.0/2017,2000,H 5.5,0.15
# From MPO384317
2014 MZ69,e,12.9058,20.7410,248.5355,45.97787,0.0031614,0.19748321,51.5922,09/04.0/2017,2000,H 5.9,0.15
# From MPO384317
2014 MA70,e,4.2860,200.0490,87.7934,43.47728,0.0034380,0.08432433,40.0867,09/04.0/2017,2000,H 5.1,0.15
# From MPO384317
2014 MB70,e,9.2691,351.3979,317.8520,46.34307,0.0031241,0.11190967,23.1105,09/04.0/2017,2000,H 5.8,0.15
# From MPO384317
2014 MC70,e,7.6935,25.4729,280.7235,45.11689,0.0032523,0.12671775,9.6166,09/04.0/2017,2000,H 5.9,0.15
# From MPO384318
2014 MD70,e,10.9561,58.9284,279.0686,49.56417,0.0028246,0.26394240,2.0362,09/04.0/2017,2000,H 6.7,0.15
# From MPO384318
2014 ME70,e,7.8160,0.9841,273.3252,42.75053,0.0035261,0.15436917,25.7739,09/04.0/2017,2000,H 6.4,0.15
# From MPO384318
2014 MF70,e,4.7580,125.9536,183.0801,39.66728,0.0039451,0.24584416,315.6796,09/04.0/2017,2000,H 6.4,0.15
# From MPO384318
2014 MG70,e,12.1831,325.2280,36.4059,43.38005,0.0034496,0.05256918,321.6334,09/04.0/2017,2000,H 5.8,0.15
# From MPO384318
